{
  "type": "FeatureCollection",
  "features": [
    {
      "type": "Feature",
      "properties": {
        "norad_id": 27954,
        "name": "GALAXY 13 (HORIZONS-1)",
        "group": "intelsat",
        "lat": -0.16226120534039237,
        "lon": 75.09581667249083,
        "alt_km": 35795.09985863742,
        "timestamp": "2025-12-09T09:46:47.314565+00:00",
        "meta_object_name": "GALAXY 13 (HORIZONS-1)",
        "meta_object_id": "2003-044A",
        "meta_epoch": "2025-12-08T16:18:51.670944",
        "meta_mean_motion": 1.00269733,
        "meta_eccentricity": 0.00020302,
        "meta_inclination": 0.9249,
        "meta_ra_of_asc_node": 86.5233,
        "meta_arg_of_pericenter": 160.3952,
        "meta_mean_anomaly": 285.4875,
        "meta_ephemeris_type": 0,
        "meta_classification_type": "U",
        "meta_norad_cat_id": 27954,
        "meta_element_set_no": 999,
        "meta_rev_at_epoch": 4466,
        "meta_bstar": 0,
        "meta_mean_motion_dot": 1.35e-06,
        "meta_mean_motion_ddot": 0,
        "tle_line1": "1 27954U 03044A   25342.67976471  .00000135  00000+0  00000+0 0  9998",
        "tle_line2": "2 27954   0.9249  86.5233 0002030 160.3952 285.4875  1.00269733 44661"
      },
      "geometry": {
        "type": "Point",
        "coordinates": [
          75.09581667249083,
          -0.16226120534039237
        ]
      }
    },
    {
      "type": "Feature",
      "properties": {
        "norad_id": 28358,
        "name": "INTELSAT 10-02",
        "group": "intelsat",
        "lat": -0.0029175817541390327,
        "lon": -135.89589884427508,
        "alt_km": 35784.30122530552,
        "timestamp": "2025-12-09T09:46:47.314580+00:00",
        "meta_object_name": "INTELSAT 10-02",
        "meta_object_id": "2004-022A",
        "meta_epoch": "2025-12-08T22:09:37.319040",
        "meta_mean_motion": 1.00271845,
        "meta_eccentricity": 0.00013025,
        "meta_inclination": 0.0314,
        "meta_ra_of_asc_node": 71.4488,
        "meta_arg_of_pericenter": 224.368,
        "meta_mean_anomaly": 113.5358,
        "meta_ephemeris_type": 0,
        "meta_classification_type": "U",
        "meta_norad_cat_id": 28358,
        "meta_element_set_no": 999,
        "meta_rev_at_epoch": 7864,
        "meta_bstar": 0,
        "meta_mean_motion_dot": -9e-08,
        "meta_mean_motion_ddot": 0,
        "tle_line1": "1 28358U 04022A   25342.92334860 -.00000009  00000+0  00000+0 0  9993",
        "tle_line2": "2 28358   0.0314  71.4488 0001302 224.3680 113.5358  1.00271845 78648"
      },
      "geometry": {
        "type": "Point",
        "coordinates": [
          -135.89589884427508,
          -0.0029175817541390327
        ]
      }
    },
    {
      "type": "Feature",
      "properties": {
        "norad_id": 28626,
        "name": "XM-3 (RHYTHM)",
        "group": "intelsat",
        "lat": -0.1595061722485598,
        "lon": -4.762168562895321,
        "alt_km": 36154.13071920993,
        "timestamp": "2025-12-09T09:46:47.314594+00:00",
        "meta_object_name": "XM-3 (RHYTHM)",
        "meta_object_id": "2005-008A",
        "meta_epoch": "2025-12-08T22:47:33.686016",
        "meta_mean_motion": 0.98953898,
        "meta_eccentricity": 0.00013439,
        "meta_inclination": 0.1649,
        "meta_ra_of_asc_node": 81.1634,
        "meta_arg_of_pericenter": 263.2818,
        "meta_mean_anomaly": 207.7073,
        "meta_ephemeris_type": 0,
        "meta_classification_type": "U",
        "meta_norad_cat_id": 28626,
        "meta_element_set_no": 999,
        "meta_rev_at_epoch": 4071,
        "meta_bstar": 0,
        "meta_mean_motion_dot": -2.48e-06,
        "meta_mean_motion_ddot": 0,
        "tle_line1": "1 28626U 05008A   25342.94969544 -.00000248  00000+0  00000+0 0  9996",
        "tle_line2": "2 28626   0.1649  81.1634 0001343 263.2818 207.7073  0.98953898 40717"
      },
      "geometry": {
        "type": "Point",
        "coordinates": [
          -4.762168562895321,
          -0.1595061722485598
        ]
      }
    },
    {
      "type": "Feature",
      "properties": {
        "norad_id": 28659,
        "name": "DIRECTV 8",
        "group": "intelsat",
        "lat": 0.03398600058348351,
        "lon": 106.03245032058831,
        "alt_km": 35798.40970395343,
        "timestamp": "2025-12-09T09:46:47.314613+00:00",
        "meta_object_name": "DIRECTV 8",
        "meta_object_id": "2005-019A",
        "meta_epoch": "2025-12-08T21:35:55.547808",
        "meta_mean_motion": 1.00271763,
        "meta_eccentricity": 0.00031931,
        "meta_inclination": 0.0166,
        "meta_ra_of_asc_node": 3.2565,
        "meta_arg_of_pericenter": 258.7514,
        "meta_mean_anomaly": 20.8269,
        "meta_ephemeris_type": 0,
        "meta_classification_type": "U",
        "meta_norad_cat_id": 28659,
        "meta_element_set_no": 999,
        "meta_rev_at_epoch": 7516,
        "meta_bstar": 0,
        "meta_mean_motion_dot": 3e-08,
        "meta_mean_motion_ddot": 0,
        "tle_line1": "1 28659U 05019A   25342.89994847  .00000003  00000+0  00000+0 0  9990",
        "tle_line2": "2 28659   0.0166   3.2565 0003193 258.7514  20.8269  1.00271763 75167"
      },
      "geometry": {
        "type": "Point",
        "coordinates": [
          106.03245032058831,
          0.03398600058348351
        ]
      }
    },
    {
      "type": "Feature",
      "properties": {
        "norad_id": 28702,
        "name": "GALAXY 28 (G-28)",
        "group": "intelsat",
        "lat": 2.3145412234870095,
        "lon": 136.35301626903376,
        "alt_km": 35792.20294431612,
        "timestamp": "2025-12-09T09:46:47.314626+00:00",
        "meta_object_name": "GALAXY 28 (G-28)",
        "meta_object_id": "2005-022A",
        "meta_epoch": "2025-12-08T21:44:32.223264",
        "meta_mean_motion": 1.00271222,
        "meta_eccentricity": 0.00026675,
        "meta_inclination": 2.8088,
        "meta_ra_of_asc_node": 81.3266,
        "meta_arg_of_pericenter": 178.5571,
        "meta_mean_anomaly": 55.4713,
        "meta_ephemeris_type": 0,
        "meta_classification_type": "U",
        "meta_norad_cat_id": 28702,
        "meta_element_set_no": 999,
        "meta_rev_at_epoch": 5006,
        "meta_bstar": 0,
        "meta_mean_motion_dot": -1.86e-06,
        "meta_mean_motion_ddot": 0,
        "tle_line1": "1 28702U 05022A   25342.90592851 -.00000186  00000+0  00000+0 0  9997",
        "tle_line2": "2 28702   2.8088  81.3266 0002667 178.5571  55.4713  1.00271222 50061"
      },
      "geometry": {
        "type": "Point",
        "coordinates": [
          136.35301626903376,
          2.3145412234870095
        ]
      }
    },
    {
      "type": "Feature",
      "properties": {
        "norad_id": 29236,
        "name": "GALAXY 16 (G-16)",
        "group": "intelsat",
        "lat": 0.00113942019537852,
        "lon": 126.05418833784927,
        "alt_km": 35793.0354232915,
        "timestamp": "2025-12-09T09:46:47.314639+00:00",
        "meta_object_name": "GALAXY 16 (G-16)",
        "meta_object_id": "2006-023A",
        "meta_epoch": "2025-12-08T21:41:39.997824",
        "meta_mean_motion": 1.00272275,
        "meta_eccentricity": 0.00028537,
        "meta_inclination": 0.0108,
        "meta_ra_of_asc_node": 101.332,
        "meta_arg_of_pericenter": 150.5213,
        "meta_mean_anomaly": 52.4532,
        "meta_ephemeris_type": 0,
        "meta_classification_type": "U",
        "meta_norad_cat_id": 29236,
        "meta_element_set_no": 999,
        "meta_rev_at_epoch": 7106,
        "meta_bstar": 0,
        "meta_mean_motion_dot": -1.25e-06,
        "meta_mean_motion_ddot": 0,
        "tle_line1": "1 29236U 06023A   25342.90393516 -.00000125  00000+0  00000+0 0  9992",
        "tle_line2": "2 29236   0.0108 101.3320 0002853 150.5213  52.4532  1.00272275 71069"
      },
      "geometry": {
        "type": "Point",
        "coordinates": [
          126.05418833784927,
          0.00113942019537852
        ]
      }
    },
    {
      "type": "Feature",
      "properties": {
        "norad_id": 29494,
        "name": "DIRECTV 9S",
        "group": "intelsat",
        "lat": 1.271466028616116,
        "lon": 123.83797113397357,
        "alt_km": 35796.03198709997,
        "timestamp": "2025-12-09T09:46:47.314667+00:00",
        "meta_object_name": "DIRECTV 9S",
        "meta_object_id": "2006-043A",
        "meta_epoch": "2025-12-08T21:41:02.558112",
        "meta_mean_motion": 1.00270662,
        "meta_eccentricity": 0.00031815,
        "meta_inclination": 1.9303,
        "meta_ra_of_asc_node": 83.2466,
        "meta_arg_of_pericenter": 177.2325,
        "meta_mean_anomaly": 41.4703,
        "meta_ephemeris_type": 0,
        "meta_classification_type": "U",
        "meta_norad_cat_id": 29494,
        "meta_element_set_no": 999,
        "meta_rev_at_epoch": 4947,
        "meta_bstar": 0,
        "meta_mean_motion_dot": -1.11e-06,
        "meta_mean_motion_ddot": 0,
        "tle_line1": "1 29494U 06043A   25342.90350183 -.00000111  00000+0  00000+0 0  9998",
        "tle_line2": "2 29494   1.9303  83.2466 0003181 177.2325  41.4703  1.00270662 49472"
      },
      "geometry": {
        "type": "Point",
        "coordinates": [
          123.83797113397357,
          1.271466028616116
        ]
      }
    }
  ]
}